NORAD_CAT_ID,OBJECT_NAME,OBJECT_TYPE,EPOCH,MEAN_MOTION,ECCENTRICITY,INCLINATION,RA_OF_ASC_NODE,ARG_OF_PERICENTER,MEAN_ANOMALY,BSTAR,MEAN_MOTION_DOT,MEAN_MOTION_DDOT,TLE_LINE0,TLE_LINE1,TLE_LINE2,SEMIMAJOR_AXIS,PERIOD,APOGEE,PERIGEE,DECAYED
52282.0,STARLINK-3783,PAYLOAD,2024-01-12 01:20:24,15.08835774,0.0001966,53.2208,34.9385,119.1287,240.9902,-3.254e-05,-8.06e-06,0.0,0 STARLINK-3783,1 52282U 22041X   24012.05583703 -.00000806  00000-0 -32540-4 0  9992,2 52282  53.2208  34.9385 0001966 119.1287 240.9902 15.08835774 96812,6917.893,95.438,541.118,538.398,0.0
52282.0,STARLINK-3783,PAYLOAD,2024-01-12 07:41:56,15.08838738,0.0001789,53.2184,33.7585,82.5884,277.5311,1.039e-05,-1.23e-06,0.0,0 STARLINK-3783,1 52282U 22041X   24012.32079787 -.00000123  00000-0  10390-4 0  9994,2 52282  53.2184  33.7585 0001789  82.5884 277.5311 15.08838738 95635,6917.884,95.438,540.987,538.512,0.0
52282.0,STARLINK-3783,PAYLOAD,2024-01-13 04:21:57,15.08845423,0.0001635,53.2183,29.8919,105.8434,254.2738,-3.7326e-05,-8.82e-06,0.0,0 STARLINK-3783,1 52282U 22041X   24013.18191469 -.00000882  00000-0 -37326-4 0  9992,2 52282  53.2183  29.8919 0001635 105.8434 254.2738 15.08845423 96984,6917.864,95.437,540.86,538.598,0.0
52282.0,STARLINK-3783,PAYLOAD,2024-01-13 10:43:29,15.08848491,0.0001921,53.2186,28.7009,120.7051,239.4131,3.255e-05,2.3e-06,0.0,0 STARLINK-3783,1 52282U 22041X   24013.44686882  .00000230  00000-0  32550-4 0  9998,2 52282  53.2186  28.7009 0001921 120.7051 239.4131 15.08848491 95804,6917.854,95.437,541.048,538.391,0.0
52282.0,STARLINK-3783,PAYLOAD,2024-01-14 07:23:30,15.08844122,0.0001636,53.2173,24.8301,121.6058,238.5094,2.7627e-05,1.52e-06,0.0,0 STARLINK-3783,1 52282U 22041X   24014.30799267  .00000152  00000-0  27627-4 0  9998,2 52282  53.2173  24.8301 0001636 121.6058 238.5094 15.08844122 97157,6917.868,95.437,540.865,538.601,0.0
52282.0,STARLINK-3783,PAYLOAD,2024-01-15 04:03:31,15.08840313,0.0001553,53.2173,20.9622,109.5996,250.5164,-1.9403e-05,-5.97e-06,0.0,0 STARLINK-3783,1 52282U 22041X   24015.16911915 -.00000597  00000-0 -19403-4 0  9997,2 52282  53.2173  20.9622 0001553 109.5996 250.5164 15.08840313 97288,6917.879,95.438,540.819,538.67,0.0
52282.0,STARLINK-3783,PAYLOAD,2024-01-15 10:25:03,15.08846778,0.000147,53.2175,19.7786,88.9127,271.2034,4.5798e-05,4.41e-06,0.0,0 STARLINK-3783,1 52282U 22041X   24015.43407395  .00000441  00000-0  45798-4 0  9991,2 52282  53.2175  19.7786 0001470  88.9127 271.2034 15.08846778 97323,6917.86,95.437,540.742,538.708,0.0
52282.0,STARLINK-3783,PAYLOAD,2024-01-16 00:43:33,15.08830917,0.0001344,53.2171,17.0967,95.1789,264.9357,-2.2273e-05,-6.42e-06,0.0,0 STARLINK-3783,1 52282U 22041X   24016.03024835 -.00000642  00000-0 -22273-4 0  9990,2 52282  53.2171  17.0967 0001344  95.1789 264.9357 15.08830917 97410,6917.908,95.438,540.703,538.843,0.0
52282.0,STARLINK-3783,PAYLOAD,2024-01-16 10:15:52,15.08832306,0.0001954,53.2173,15.3222,90.5969,269.5247,-3.7053e-06,-3.47e-06,0.0,0 STARLINK-3783,1 52282U 22041X   24016.42769075 -.00000347  00000-0 -37053-5 0  9990,2 52282  53.2173  15.3222 0001954  90.5969 269.5247 15.08832306 96257,6917.904,95.438,541.121,538.417,0.0
52282.0,STARLINK-3783,PAYLOAD,2024-01-17 03:45:06,15.08834546,0.0001516,53.2191,12.0497,104.1049,256.0112,4.5941e-05,4.43e-06,0.0,0 STARLINK-3783,1 52282U 22041X   24017.15632817  .00000443  00000-0  45941-4 0  9993,2 52282  53.2191  12.0497 0001516 104.1049 256.0112 15.08834546 97587,6917.897,95.438,540.811,538.713,0.0
52282.0,STARLINK-3783,PAYLOAD,2024-01-17 06:55:52,15.08840833,0.0001558,53.2195,11.4556,87.648,272.4691,9.5238e-05,1.228e-05,0.0,0 STARLINK-3783,1 52282U 22041X   24017.28880455  .00001228  00000-0  95238-4 0  9996,2 52282  53.2195  11.4556 0001558  87.6480 272.4691 15.08840833 96387,6917.878,95.438,540.821,538.665,0.0
52282.0,STARLINK-3783,PAYLOAD,2024-01-18 03:35:53,15.08838655,0.0001457,53.2185,7.594,88.4015,271.7144,7.959e-05,9.79e-06,0.0,0 STARLINK-3783,1 52282U 22041X   24018.14992881  .00000979  00000-0  79590-4 0  9994,2 52282  53.2185   7.5940 0001457  88.4015 271.7144 15.08838655 97734,6917.885,95.438,540.757,538.742,0.0
52282.0,STARLINK-3783,PAYLOAD,2024-01-18 08:22:02,15.0884456,0.0001498,53.2183,6.6929,93.7026,266.4137,0.00012077,1.635e-05,0.0,0 STARLINK-3783,1 52282U 22041X   24018.34864116  .00001635  00000-0  12077-3 0  9991,2 52282  53.2183   6.6929 0001498  93.7026 266.4137 15.08844560 97763,6917.866,95.437,540.768,538.695,0.0
52282.0,STARLINK-3783,PAYLOAD,2024-01-19 03:26:40,15.08846675,0.0001589,53.2212,3.1153,85.235,274.8823,4.4947e-05,4.28e-06,0.0,0 STARLINK-3783,1 52282U 22041X   24019.14352346  .00000428  00000-0  44947-4 0  9998,2 52282  53.2212   3.1153 0001589  85.2350 274.8823 15.08846675 97881,6917.86,95.437,540.824,538.626,0.0
52282.0,STARLINK-3783,PAYLOAD,2024-01-19 08:12:49,15.08852388,0.0001526,53.2182,2.2278,111.7935,248.322,6.5783e-05,7.59e-06,0.0,0 STARLINK-3783,1 52282U 22041X   24019.34223720  .00000759  00000-0  65783-4 0  9991,2 52282  53.2182   2.2278 0001526 111.7935 248.3220 15.08852388 97919,6917.843,95.437,540.763,538.652,0.0
52282.0,STARLINK-3783,PAYLOAD,2024-01-19 22:31:18,15.08837486,0.0001834,53.2206,359.5499,123.8796,236.237,1.3599e-05,-7.2e-07,0.0,0 STARLINK-3783,1 52282U 22041X   24019.93840675 -.00000072  00000-0  13599-4 0  9997,2 52282  53.2206 359.5499 0001834 123.8796 236.2370 15.08837486 96788,6917.888,95.438,541.022,538.484,0.0
52282.0,STARLINK-3783,PAYLOAD,2024-01-20 03:17:27,15.08843471,0.0001891,53.2182,358.6679,115.2283,244.8906,5.0581e-05,5.17e-06,0.0,0 STARLINK-3783,1 52282U 22041X   24020.13712193  .00000517  00000-0  50581-4 0  9999,2 52282  53.2182 358.6679 0001891 115.2283 244.8906 15.08843471 98031,6917.87,95.437,541.043,538.427,0.0
52282.0,STARLINK-3783,PAYLOAD,2024-01-20 04:52:50,15.0884215,0.0001551,53.2178,358.3743,85.6838,274.4332,4.7815e-05,4.73e-06,0.0,0 STARLINK-3783,1 52282U 22041X   24020.20336546  .00000473  00000-0  47815-4 0  9998,2 52282  53.2178 358.3743 0001551  85.6838 274.4332 15.08842150 96824,6917.874,95.437,540.812,538.666,0.0
52282.0,STARLINK-3783,PAYLOAD,2024-01-21 03:08:14,15.08840101,0.0001445,53.2173,354.2111,99.7644,260.3512,3.3698e-06,-2.34e-06,0.0,0 STARLINK-3783,1 52282U 22041X   24021.13072790 -.00000234  00000-0  33698-5 0  9990,2 52282  53.2173 354.2111 0001445  99.7644 260.3512 15.08840101 98185,6917.88,95.438,540.745,538.745,0.0
52282.0,STARLINK-3783,PAYLOAD,2024-01-21 04:43:37,15.08841624,0.0001427,53.2176,353.9134,97.707,262.4084,1.9436e-05,2.1e-07,0.0,0 STARLINK-3783,1 52282U 22041X   24021.19696707  .00000021  00000-0  19436-4 0  9992,2 52282  53.2176 353.9134 0001427  97.7070 262.4084 15.08841624 96973,6917.875,95.437,540.728,538.753,0.0
52282.0,STARLINK-3783,PAYLOAD,2024-01-21 22:12:52,15.08842093,0.000156,53.2177,350.6382,77.0271,283.0896,-5.1116e-06,-3.69e-06,0.0,0 STARLINK-3783,1 52282U 22041X   24021.92560821 -.00000369  00000-0 -51116-5 0  9999,2 52282  53.2177 350.6382 0001560  77.0271 283.0896 15.08842093 97089,6917.874,95.437,540.818,538.66,0.0
52282.0,STARLINK-3783,PAYLOAD,2024-01-22 04:34:24,15.08849348,0.000146,53.2186,349.4503,80.2192,279.8965,7.6928e-05,9.37e-06,0.0,0 STARLINK-3783,1 52282U 22041X   24022.19056128  .00000937  00000-0  76928-4 0  9995,2 52282  53.2186 349.4503 0001460  80.2192 279.8965 15.08849348 97122,6917.852,95.437,540.727,538.707,0.0
52282.0,STARLINK-3783,PAYLOAD,2024-01-22 07:45:10,15.08851767,0.0001581,53.2189,348.8547,90.7493,269.368,9.6086e-05,1.242e-05,0.0,0 STARLINK-3783,1 52282U 22041X   24022.32303849  .00001242  00000-0  96086-4 0  9992,2 52282  53.2189 348.8547 0001581  90.7493 269.3680 15.08851767 98363,6917.844,95.437,540.803,538.616,0.0
52282.0,STARLINK-3783,PAYLOAD,2024-01-22 17:17:30,15.08835812,0.0001585,53.2177,347.0646,117.3529,242.7624,5.914e-05,6.53e-06,0.0,0 STARLINK-3783,1 52282U 22041X   24022.72048875  .00000653  00000-0  59140-4 0  9996,2 52282  53.2177 347.0646 0001585 117.3529 242.7624 15.08835812 98424,6917.893,95.438,540.855,538.662,0.0
52282.0,STARLINK-3783,PAYLOAD,2024-01-23 04:25:12,15.08838004,0.0001484,53.2192,344.9919,99.1113,261.0047,6.286e-05,7.13e-06,0.0,0 STARLINK-3783,1 52282U 22041X   24023.18416996  .00000713  00000-0  62860-4 0  9990,2 52282  53.2192 344.9919 0001484  99.1113 261.0047 15.08838004 97275,6917.886,95.438,540.778,538.725,0.0
52282.0,STARLINK-3783,PAYLOAD,2024-01-24 02:40:36,15.08842783,0.0001469,53.2191,340.8287,104.8514,255.2641,2.4832e-05,1.07e-06,0.0,0 STARLINK-3783,1 52282U 22041X   24024.11152795  .00000107  00000-0  24832-4 0  9992,2 52282  53.2191 340.8287 0001469 104.8514 255.2641 15.08842783 98634,6917.872,95.437,540.753,538.721,0.0
52282.0,STARLINK-3783,PAYLOAD,2024-01-25 04:06:46,15.08829181,0.0001282,53.2192,336.0723,90.2656,269.8484,0.00028665,4.276e-05,0.0,0 STARLINK-3783,1 52282U 22041X   24025.17137476  .00004276  00000-0  28665-3 0  9996,2 52282  53.2192 336.0723 0001282  90.2656 269.8484 15.08829181 98795,6917.913,95.438,540.665,538.892,0.0
52282.0,STARLINK-3783,PAYLOAD,2024-01-26 03:57:34,15.08837881,0.0001837,53.2204,331.6086,64.5035,295.6147,5.3717e-05,5.67e-06,0.0,0 STARLINK-3783,1 52282U 22041X   24026.16497774  .00000567  00000-0  53717-4 0  9992,2 52282  53.2204 331.6086 0001837  64.5035 295.6147 15.08837881 97724,6917.887,95.438,541.023,538.481,0.0
52282.0,STARLINK-3783,PAYLOAD,2024-01-26 19:51:25,15.08836509,0.0001648,53.2194,328.6379,68.9046,291.2122,9.3788e-05,1.205e-05,0.0,0 STARLINK-3783,1 52282U 22041X   24026.82737820  .00001205  00000-0  93788-4 0  9996,2 52282  53.2194 328.6379 0001648  68.9046 291.2122 15.08836509 99041,6917.891,95.438,540.896,538.616,0.0
52282.0,STARLINK-3783,PAYLOAD,2024-01-27 02:12:57,15.08842216,0.0001796,53.2194,327.449,67.8544,292.2638,6.8148e-05,7.97e-06,0.0,0 STARLINK-3783,1 52282U 22041X   24027.09233656  .00000797  00000-0  68148-4 0  9991,2 52282  53.2194 327.4490 0001796  67.8544 292.2638 15.08842216 97860,6917.874,95.437,540.981,538.496,0.0
